# From MPC106342
C/1995 O1 (Hale-Bopp),e,89.0640,283.2037,130.4950,178.3993,0.0004136,0.99495482,0.0000,03/29.7444/1997,2000,g -2.0,4.0
# From NK 1615
P/1996 R2 (Lagerkvist),e,2.6004,40.0220,333.3240,3.775007,0.1343778,0.31420662,115.0495,06/17.0/2021,2000,g 11.5,4.0
# From MPC 30063
P/1997 B1 (Kobayashi),e,12.3395,328.8819,183.3379,8.574679,0.0392534,0.76023258,348.8223,06/17.0/2021,2000,g 15.0,2.0
# From MPC 75703
P/1998 VS24 (LINEAR),e,5.0260,159.0349,244.6278,4.528351,0.1022808,0.24227461,127.4250,06/17.0/2021,2000,g 13.0,2.0
# From NK 731
P/1999 RO28 (LONEOS),e,7.5672,137.8854,231.2645,3.426718,0.1553769,0.67222133,112.1437,06/17.0/2021,2000,g 20.0,2.0
# From MPC 75704
P/1999 XN120 (Catalina),e,5.0296,285.2963,161.8346,4.179045,0.1153688,0.21022690,169.3882,06/17.0/2021,2000,g 13.5,2.0
# From NK 744
P/2000 R2 (LINEAR),e,11.6860,160.2882,176.5390,3.466642,0.1527005,0.53160497,111.5452,06/17.0/2021,2000,g 18.0,4.0
# From MPC 43019
P/2001 H5 (NEAT),e,8.3669,328.6834,224.8483,6.097749,0.0654560,0.59843488,135.4125,06/17.0/2021,2000,g 12.0,4.0
# From MPC 75704
P/2001 Q6 (NEAT),e,56.9080,22.1545,42.9322,7.953338,0.0439420,0.82296284,316.6374,06/17.0/2021,2000,g 13.5,4.0
# From MPC 47727
P/2002 EJ57 (LINEAR),e,4.9762,330.3256,167.3596,6.470677,0.0598797,0.59244047,65.5667,06/17.0/2021,2000,g 12.5,4.0
# From MPC109588
P/2002 T6 (NEAT-LINEAR),e,10.8367,206.2828,219.6616,7.683382,0.0462781,0.56065041,307.6424,06/17.0/2021,2000,g 10.5,4.0
# From MPC 75007
C/2002 VQ94 (LINEAR),e,70.6067,35.0523,100.1256,185.1406,0.0003912,0.96310900,2.1987,06/17.0/2021,2000,g  9.5,2.0
# From MPC 50354
P/2003 F2 (NEAT),e,11.6057,359.0359,192.0841,6.498666,0.0594933,0.54231221,34.6455,06/17.0/2021,2000,g 16.5,2.0
# From MPC 50139
P/2003 QX29 (NEAT),e,11.3901,264.5693,37.4872,8.027805,0.0433320,0.47298999,294.5546,06/17.0/2021,2000,g  8.5,4.0
# From MPC105235
P/2003 T12 (SOHO),e,11.0192,174.5761,219.7574,2.585984,0.2370093,0.76974875,96.2507,06/17.0/2021,2000,g 17.0,4.0
# From MPC 82312
P/2004 A1 (LONEOS),e,10.5516,124.8477,21.3083,7.960548,0.0438823,0.30933237,270.2807,06/17.0/2021,2000,g  6.5,4.0
# From MPC 54558
P/2004 DO29 (Spacewatch-LINEAR),e,14.5323,147.3733,40.6727,7.285495,0.0501205,0.44116047,305.6899,06/17.0/2021,2000,g 13.5,2.0
# From MPC 54823
P/2004 FY140 (LINEAR),e,2.1348,326.7620,242.3984,4.903203,0.0907788,0.16827578,195.7041,06/17.0/2021,2000,g 12.5,2.0
# From MPC 53304
P/2004 R3 (LINEAR-NEAT),e,12.8066,305.4655,38.0527,4.793133,0.0939236,0.25999383,350.7246,06/17.0/2021,2000,g 14.5,4.0
# From MPC 55521
P/2004 V3 (Siding Spring),e,50.4399,356.1232,322.3510,7.140728,0.0516524,0.44633127,314.1231,06/17.0/2021,2000,g 11.5,4.0
# From MPC 75705
P/2004 V5 (LINEAR-Hill),e,19.3422,47.7830,87.7077,7.979502,0.0437261,0.44361692,261.4661,06/17.0/2021,2000,g  8.0,4.0
# From MPC 54164
P/2005 E1 (Tubbiolo),e,4.2637,335.5680,194.0584,7.040488,0.0527594,0.37514379,315.9678,06/17.0/2021,2000,g 10.0,4.0
# From MPC 54823
P/2005 GF8 (LONEOS),e,1.1907,314.7808,284.7575,5.834882,0.0699288,0.51748760,43.8971,06/17.0/2021,2000,g 11.5,4.0
# From MPC 79019
P/2005 J1 (McNaught),e,31.7612,268.8116,338.9617,3.570421,0.1460915,0.56962435,142.9500,06/17.0/2021,2000,g 16.5,4.0
# From MPC 74246
P/2005 L1 (McNaught),e,7.7386,138.2478,149.7244,3.975746,0.1243300,0.20954156,342.7520,06/17.0/2021,2000,g  9.5,4.0
# From MPC 75706
P/2005 S2 (Skiff),e,3.1357,161.2089,229.1646,8.014806,0.0434375,0.19741289,239.6674,06/17.0/2021,2000,g  7.5,4.0
# From MPC 75706
P/2005 SB216 (LONEOS),e,24.0859,1.1907,83.3606,7.131731,0.0517502,0.46369979,273.2452,06/17.0/2021,2000,g 12.0,2.0
# From MPC 55717
P/2005 T2 (Christensen),e,8.2921,260.1598,58.8365,3.846611,0.1306432,0.41637375,56.7754,06/17.0/2021,2000,g 14.5,4.0
# From MPC 73461
P/2005 T3 (Read),e,6.2238,27.7160,6.8236,7.582386,0.0472058,0.17440867,270.8304,06/17.0/2021,2000,g  9.0,4.0
# From MPC 73461
P/2005 T4 (SWAN),e,160.2119,25.7542,41.6590,9.361248,0.0344115,0.92977272,197.4790,06/17.0/2021,2000,g 15.0,4.0
# From MPC 75706
P/2005 T5 (Broughton),e,21.3607,57.0022,304.5664,7.289401,0.0500802,0.55230941,286.9683,06/17.0/2021,2000,g 11.0,4.0
# From MPC 56954
P/2005 W3 (Kowalski),e,16.4204,210.0853,200.7265,6.328691,0.0619061,0.54334724,354.0640,06/17.0/2021,2000,g 12.0,4.0
# From MPC 75706
P/2005 Y2 (McNaught),e,19.0599,94.4191,193.9077,6.381626,0.0611374,0.47050605,14.6926,06/17.0/2021,2000,g  9.0,4.0
# From MPC 56954
P/2006 F4 (Spacewatch),e,12.4231,183.8306,30.9685,3.522032,0.1491125,0.34009854,102.0759,06/17.0/2021,2000,g 15.0,4.0
# From MPC 75707
P/2006 HR30 (Siding Spring),e,31.8309,309.8998,117.2921,7.811152,0.0451473,0.84230629,239.2943,06/17.0/2021,2000,g 11.0,4.0
# From MPEC 2021-M34
P/2006 S4 (Christensen),e,39.5318,36.0783,305.1404,6.316068,0.0620917,0.50836735,346.9056,06/17.0/2021,2000,g 11.0,4.0
# From MPC 75707
P/2007 A2 (Christensen),e,26.4877,300.9077,186.7327,6.328175,0.0619136,0.55776653,327.1713,06/17.0/2021,2000,g 13.5,4.0
# From MPC 75707
P/2007 C2 (Catalina),e,8.6364,275.5152,180.0358,6.992226,0.0533066,0.47087541,267.0782,06/17.0/2021,2000,g 10.0,4.0
# From MPC 84315
C/2007 D1 (LINEAR),e,41.5017,171.2084,340.0163,1410,0.0000186,0.99374180,0.0000,06/08.4411/2007,2000,g  3.5,4.0
# From MPC 82314
P/2007 K2 (Gibbs),e,7.6322,188.6423,347.4382,7.265739,0.0503251,0.68309490,258.1696,06/17.0/2021,2000,g 14.0,4.0
# From MPC 60925
P/2007 Q2 (Gilmore),e,10.2027,172.1599,162.7783,5.652524,0.0733399,0.67010687,14.8168,06/17.0/2021,2000,g 16.0,4.0
# From MPC 75708
P/2007 R4 (Garradd),e,20.2133,87.2120,282.5910,5.935349,0.0681608,0.67022289,348.0904,06/17.0/2021,2000,g 14.5,4.0
# From MPC 73462
P/2007 S1 (Zhao),e,5.9639,141.3712,245.5991,3.816377,0.1321987,0.33958027,296.7885,06/17.0/2021,2000,g 13.0,4.0
# From MPC 61994
P/2007 T2 (Kowalski),e,9.7487,3.3747,359.6393,3.046886,0.1853190,0.78540993,196.2587,06/17.0/2021,2000,g 18.5,4.0
# From MPC 75708
P/2008 CL94 (Lemmon),e,8.3465,33.3201,80.4189,6.162892,0.0644210,0.12050362,353.8519,06/17.0/2021,2000,g  8.0,4.0
# From MPC 75709
P/2008 L2 (Hill),e,25.8623,218.0088,141.2254,6.028372,0.0665892,0.61320745,313.8464,06/17.0/2021,2000,g 12.5,4.0
# From MPC 64114
P/2008 O3 (Boattini),e,32.2735,47.5860,341.1021,8.221088,0.0418129,0.69549528,199.5076,06/17.0/2021,2000,g 13.0,4.0
# From MPC 75709
P/2008 QP20 (LINEAR-Hill),e,7.5226,322.0725,75.5328,3.553630,0.1471282,0.49176153,330.7011,06/17.0/2021,2000,g 15.5,4.0
# From MPC 66204
P/2008 WZ96 (LINEAR),e,7.1116,56.4468,341.9302,3.487156,0.1513551,0.46984636,349.2868,06/17.0/2021,2000,g 13.5,4.0
# From MPC 75710
P/2008 Y3 (McNaught),e,38.7670,262.8038,238.2031,8.046898,0.0431779,0.44545991,196.8816,06/17.0/2021,2000,g  8.5,4.0
# From MPC 75710
P/2009 B1 (Boattini),e,22.2207,297.0893,128.8781,6.736998,0.0563643,0.63487015,256.2108,06/17.0/2021,2000,g 13.0,4.0
# From MPC 66466
C/2009 G1 (STEREO),e,108.7256,120.4447,175.4255,438.3906,0.0001074,0.99740663,0.0000,04/15.9708/2009,2000,g  9.0,4.0
# From MPC 75710
P/2009 O3 (Hill),e,16.2744,183.7017,154.4216,7.769180,0.0455136,0.68776633,200.6313,06/17.0/2021,2000,g 12.5,4.0
# From MPC 68902
P/2009 Q5 (McNaught),e,40.9841,160.2745,209.0299,7.435835,0.0486082,0.60908391,209.1490,06/17.0/2021,2000,g 10.0,4.0
# From MPC112389
P/2009 T2 (La Sagra),e,27.5649,215.8227,216.3831,7.723114,0.0459214,0.76539657,192.4010,06/17.0/2021,2000,g 14.0,4.0
# From MPC105235
P/2009 WX51 (Catalina),e,9.5946,31.6746,118.0955,3.081045,0.1822456,0.74026856,38.7529,06/17.0/2021,2000,g 19.0,2.0
# From MPC 74247
P/2009 Y2 (Kowalski),e,29.9345,262.0258,172.1464,6.549942,0.0587960,0.63605024,242.6305,06/17.0/2021,2000,g 13.0,4.0
# From MPC 75711
P/2010 A3 (Hill),e,14.8388,63.8861,42.1078,6.078199,0.0657721,0.73347746,270.2310,06/17.0/2021,2000,g 14.0,4.0
# From MPC 75008
P/2010 C1 (Scotti),e,9.1281,141.8862,3.6701,7.103523,0.0520587,0.25883089,220.4569,06/17.0/2021,2000,g  9.5,4.0
# From MPC 75008
P/2010 D2 (WISE),e,57.0858,319.8909,120.0384,6.717090,0.0566151,0.45099948,234.5107,06/17.0/2021,2000,g 16.0,4.0
# From MPC 75009
P/2010 E2 (Jarnac),e,15.3958,177.8234,8.3601,8.639102,0.0388151,0.71987888,158.9513,06/17.0/2021,2000,g 14.0,4.0
# From MPC 72851
P/2010 H2 (Vales),e,14.2742,64.1974,128.1158,3.833549,0.1313114,0.19587515,180.8661,06/17.0/2021,2000,g  6.0,4.0
# From MPC 70361
P/2010 H3 (SOHO),e,23.0806,77.0972,26.1449,3.037763,0.1861544,0.98537728,0.0000,02/07.9630/2021,2000,g 20.0,2.0
# From MPC 73463
P/2010 H4 (Scotti),e,2.3184,44.7399,179.5281,6.592132,0.0582325,0.26709792,233.9357,06/17.0/2021,2000,g 10.5,4.0
# From MPC 74637
P/2010 H5 (Scotti),e,14.0630,24.8048,175.1749,7.162289,0.0514193,0.15317910,210.3870,06/17.0/2021,2000,g 13.0,2.0
# From MPC 98558
P/2010 J3 (McMillan),e,13.2855,106.4195,157.5976,8.973123,0.0366681,0.72685849,144.6350,06/17.0/2021,2000,g 11.0,4.0
# From MPC 84315
P/2010 JC81 (WISE),e,38.7533,30.8493,12.4301,8.109474,0.0426791,0.77704580,158.3779,06/17.0/2021,2000,g  9.0,4.0
# From MPC 74248
P/2010 T2 (PANSTARRS),e,7.8972,58.8743,353.3639,5.529997,0.0757908,0.32155444,283.4752,06/17.0/2021,2000,g 11.5,4.0
# From MPC 98558
P/2010 TO20 (LINEAR-Grauer),e,2.4789,43.2932,266.8370,5.830789,0.0700024,0.05503040,323.5131,06/17.0/2021,2000,g  9.0,4.0
# From MPC 82316
P/2010 U1 (Boattini),e,8.2152,280.7076,85.9691,6.509453,0.0593454,0.24844267,246.8962,06/17.0/2021,2000,g  9.5,4.0
# From MPC119994
C/2010 U3 (Boattini),e,55.5290,43.0205,88.0615,2273,0.0000091,0.99628474,0.0000,02/25.5894/2019,2000,g  1.0,4.0
# From MPC 79021
P/2010 UH55 (Spacewatch),e,8.0415,232.9471,225.1743,6.652768,0.0574382,0.56336853,213.7074,06/17.0/2021,2000,g 11.0,4.0
# From MPC 75009
P/2010 WK (LINEAR),e,11.4011,11.3235,40.9714,5.761402,0.0712708,0.68997464,279.3904,06/17.0/2021,2000,g 14.5,2.0
# From MPC 82317
P/2011 A2 (Scotti),e,4.4749,54.6765,94.5137,3.106011,0.1800526,0.49949306,329.8157,06/17.0/2021,2000,g 16.5,4.0
# From MPC 84021
P/2011 C2 (Gibbs),e,10.8850,12.1242,160.8952,7.413777,0.0488253,0.26889612,168.7930,06/17.0/2021,2000,g  9.0,4.0
# From MPC 79866
